start=new Date('2023-03-06T00:00:00.000Z').valueOf();
sats=[{"SITE":"AFETR","CLASSIFICATION_TYPE":"U","MEAN_MOTION_DDOT":"0.0000000000000","RCS_SIZE":"LARGE","MEAN_ANOMALY":"255.5613","EPHEMERIS_TYPE":"0","PERIOD":"95.437","REV_AT_EPOCH":"6257","OBJECT_TYPE":"PAYLOAD","TLE_LINE2":"2 51136  53.2138 199.9348 0001495 104.5545 255.5613 15.08841725 62574","TIME_SYSTEM":"UTC","ARG_OF_PERICENTER":"104.5545","ELEMENT_SET_NO":"999","BSTAR":"0.00083355000000","FILE":"3851939","OBJECT_ID":"2022-005AJ","EPOCH":"2023-03-05T02:00:13.552416","REF_FRAME":"TEME","APOAPSIS":"540.774","TLE_LINE1":"1 51136U 22005AJ  23064.08349019  .00013003  00000-0  83355-3 0  9998","ECCENTRICITY":"0.00014950","DECAY_DATE":null,"SEMIMAJOR_AXIS":"6917.875","MEAN_ELEMENT_THEORY":"SGP4","MEAN_MOTION_DOT":"0.00013003","LAUNCH_DATE":"2022-01-19","COUNTRY_CODE":"US","MEAN_MOTION":"15.08841725","RA_OF_ASC_NODE":"199.9348","OBJECT_NAME":"STARLINK-3253","INCLINATION":"53.2138","GP_ID":"227548797","PERIAPSIS":"538.706","CENTER_NAME":"EARTH","NORAD_CAT_ID":"51136"},{"OBJECT_NAME":"STARLINK-3180","RA_OF_ASC_NODE":"199.9892","COUNTRY_CODE":"US","MEAN_MOTION":"15.08851738","LAUNCH_DATE":"2022-01-19","NORAD_CAT_ID":"51137","CENTER_NAME":"EARTH","PERIAPSIS":"538.778","GP_ID":"227549550","INCLINATION":"53.2160","TLE_LINE1":"1 51137U 22005AK  23064.07148910 -.00000204  00000-0  52478-5 0  9999","ECCENTRICITY":"0.00013470","APOAPSIS":"540.641","EPOCH":"2023-03-05T01:42:56.658240","REF_FRAME":"TEME","OBJECT_ID":"2022-005AK","FILE":"3851939","MEAN_MOTION_DOT":"-0.00000204","SEMIMAJOR_AXIS":"6917.845","MEAN_ELEMENT_THEORY":"SGP4","DECAY_DATE":null,"ELEMENT_SET_NO":"999","TLE_LINE2":"2 51137  53.2160 199.9892 0001347  93.3131 266.8015 15.08851738 62583","OBJECT_TYPE":"PAYLOAD","TIME_SYSTEM":"UTC","ARG_OF_PERICENTER":"93.3131","REV_AT_EPOCH":"6258","BSTAR":"0.00000524780000","MEAN_MOTION_DDOT":"0.0000000000000","CLASSIFICATION_TYPE":"U","SITE":"AFETR","PERIOD":"95.437","EPHEMERIS_TYPE":"0","MEAN_ANOMALY":"266.8015","RCS_SIZE":"LARGE"},{"DECAY_DATE":null,"SEMIMAJOR_AXIS":"6917.928","MEAN_ELEMENT_THEORY":"SGP4","MEAN_MOTION_DOT":"-0.00001830","FILE":"3851939","OBJECT_ID":"2022-005AL","EPOCH":"2023-03-05T01:53:32.866368","REF_FRAME":"TEME","APOAPSIS":"540.806","TLE_LINE1":"1 51138U 22005AL  23064.07885262 -.00001830  00000-0 -96973-4 0  9992","ECCENTRICITY":"0.00014640","INCLINATION":"53.2141","GP_ID":"227547804","PERIAPSIS":"538.781","CENTER_NAME":"EARTH","NORAD_CAT_ID":"51138","LAUNCH_DATE":"2022-01-19","COUNTRY_CODE":"US","MEAN_MOTION":"15.08824274","RA_OF_ASC_NODE":"199.9546","OBJECT_NAME":"STARLINK-3177","RCS_SIZE":"LARGE","MEAN_ANOMALY":"252.8786","EPHEMERIS_TYPE":"0","PERIOD":"95.439","SITE":"AFETR","CLASSIFICATION_TYPE":"U","MEAN_MOTION_DDOT":"0.0000000000000","BSTAR":"-0.00009697300000","REV_AT_EPOCH":"6257","TLE_LINE2":"2 51138  53.2141 199.9546 0001464 107.2367 252.8786 15.08824274 62579","OBJECT_TYPE":"PAYLOAD","ARG_OF_PERICENTER":"107.2367","TIME_SYSTEM":"UTC","ELEMENT_SET_NO":"999"},{"REV_AT_EPOCH":"6258","TLE_LINE2":"2 51139  53.2152 200.0207 0001396  98.5146 261.6005 15.08825941 62586","OBJECT_TYPE":"PAYLOAD","ARG_OF_PERICENTER":"98.5146","TIME_SYSTEM":"UTC","ELEMENT_SET_NO":"999","BSTAR":"0.00053434000000","MEAN_MOTION_DDOT":"0.0000000000000","SITE":"AFETR","CLASSIFICATION_TYPE":"U","MEAN_ANOMALY":"261.6005","EPHEMERIS_TYPE":"0","PERIOD":"95.438","RCS_SIZE":"LARGE","OBJECT_NAME":"STARLINK-3172","LAUNCH_DATE":"2022-01-19","MEAN_MOTION":"15.08825941","COUNTRY_CODE":"US","RA_OF_ASC_NODE":"200.0207","CENTER_NAME":"EARTH","NORAD_CAT_ID":"51139","INCLINATION":"53.2152","GP_ID":"227548054","PERIAPSIS":"538.823","ECCENTRICITY":"0.00013960","TLE_LINE1":"1 51139U 22005AM  23064.06413874  .00008223  00000-0  53434-3 0  9993","FILE":"3851939","OBJECT_ID":"2022-005AM","EPOCH":"2023-03-05T01:32:21.587136","REF_FRAME":"TEME","APOAPSIS":"540.754","MEAN_MOTION_DOT":"0.00008223","DECAY_DATE":null,"SEMIMAJOR_AXIS":"6917.923","MEAN_ELEMENT_THEORY":"SGP4"},{"TLE_LINE1":"1 51140U 22005AN  23064.40637794 -.00000114  00000-0  10928-4 0  9996","ECCENTRICITY":"0.00020310","APOAPSIS":"541.176","EPOCH":"2023-03-05T09:45:11.054016","REF_FRAME":"TEME","OBJECT_ID":"2022-005AN","FILE":"3851939","MEAN_MOTION_DOT":"-0.00000114","MEAN_ELEMENT_THEORY":"SGP4","SEMIMAJOR_AXIS":"6917.906","DECAY_DATE":null,"OBJECT_NAME":"STARLINK-3175","RA_OF_ASC_NODE":"198.4867","COUNTRY_CODE":"US","MEAN_MOTION":"15.08831750","LAUNCH_DATE":"2022-01-19","NORAD_CAT_ID":"51140","CENTER_NAME":"EARTH","PERIAPSIS":"538.366","GP_ID":"227549297","INCLINATION":"53.2186","MEAN_MOTION_DDOT":"0.0000000000000","CLASSIFICATION_TYPE":"U","SITE":"AFETR","EPHEMERIS_TYPE":"0","PERIOD":"95.438","MEAN_ANOMALY":"246.9504","RCS_SIZE":"LARGE","ELEMENT_SET_NO":"999","TIME_SYSTEM":"UTC","TLE_LINE2":"2 51140  53.2186 198.4867 0002031 113.1703 246.9504 15.08831750 62638","OBJECT_TYPE":"PAYLOAD","ARG_OF_PERICENTER":"113.1703","REV_AT_EPOCH":"6263","BSTAR":"0.00001092800000"},{"COUNTRY_CODE":"US","MEAN_MOTION":"15.08833886","LAUNCH_DATE":"2022-01-19","RA_OF_ASC_NODE":"198.5658","OBJECT_NAME":"STARLINK-3179","GP_ID":"227549051","INCLINATION":"53.2137","PERIAPSIS":"538.620","CENTER_NAME":"EARTH","NORAD_CAT_ID":"51141","OBJECT_ID":"2022-005AP","FILE":"3851939","APOAPSIS":"540.908","EPOCH":"2023-03-05T09:18:41.134176","REF_FRAME":"TEME","ECCENTRICITY":"0.00016540","TLE_LINE1":"1 51141U 22005AP  23064.38797609  .00012440  00000-0  79846-3 0  9993","DECAY_DATE":null,"SEMIMAJOR_AXIS":"6917.899","MEAN_ELEMENT_THEORY":"SGP4","MEAN_MOTION_DOT":"0.00012440","REV_AT_EPOCH":"6263","ELEMENT_SET_NO":"999","TIME_SYSTEM":"UTC","TLE_LINE2":"2 51141  53.2137 198.5658 0001654 101.0155 259.1023 15.08833886 62635","OBJECT_TYPE":"PAYLOAD","ARG_OF_PERICENTER":"101.0155","BSTAR":"0.00079846000000","CLASSIFICATION_TYPE":"U","SITE":"AFETR","MEAN_MOTION_DDOT":"0.0000000000000","RCS_SIZE":"LARGE","MEAN_ANOMALY":"259.1023","PERIOD":"95.438","EPHEMERIS_TYPE":"0"},{"REV_AT_EPOCH":"6271","ELEMENT_SET_NO":"999","TLE_LINE2":"2 51142  53.2152 190.0792 0001959  85.6866 274.4350 15.08830776 62710","ARG_OF_PERICENTER":"85.6866","OBJECT_TYPE":"PAYLOAD","TIME_SYSTEM":"UTC","BSTAR":"0.00023994000000","MEAN_MOTION_DDOT":"0.0000000000000","CLASSIFICATION_TYPE":"U","SITE":"AFETR","MEAN_ANOMALY":"274.4350","EPHEMERIS_TYPE":"0","PERIOD":"95.438","RCS_SIZE":"LARGE","OBJECT_NAME":"STARLINK-3369","COUNTRY_CODE":"US","MEAN_MOTION":"15.08830776","LAUNCH_DATE":"2022-01-19","RA_OF_ASC_NODE":"190.0792","CENTER_NAME":"EARTH","NORAD_CAT_ID":"51142","GP_ID":"227548304","INCLINATION":"53.2152","PERIAPSIS":"538.418","TLE_LINE1":"1 51142U 22005AQ  23064.05129129  .00003532  00000-0  23994-3 0  9999","ECCENTRICITY":"0.00019590","OBJECT_ID":"2022-005AQ","FILE":"3851939","APOAPSIS":"541.129","EPOCH":"2023-03-05T01:13:51.567456","REF_FRAME":"TEME","MEAN_MOTION_DOT":"0.00003532","DECAY_DATE":null,"MEAN_ELEMENT_THEORY":"SGP4","SEMIMAJOR_AXIS":"6917.909"},{"PERIOD":"95.437","EPHEMERIS_TYPE":"0","MEAN_ANOMALY":"282.4620","RCS_SIZE":"LARGE","MEAN_MOTION_DDOT":"0.0000000000000","CLASSIFICATION_TYPE":"U","SITE":"AFETR","BSTAR":"0.00178800000000","ELEMENT_SET_NO":"999","TLE_LINE2":"2 51143  53.2146 207.1499 0001136  77.6499 282.4620 15.08846755 62531","TIME_SYSTEM":"UTC","OBJECT_TYPE":"PAYLOAD","ARG_OF_PERICENTER":"77.6499","REV_AT_EPOCH":"6253","MEAN_MOTION_DOT":"0.00028288","MEAN_ELEMENT_THEORY":"SGP4","SEMIMAJOR_AXIS":"6917.860","DECAY_DATE":null,"TLE_LINE1":"1 51143U 22005AR  23064.70353534  .00028288  00000-0  17880-2 0  9992","ECCENTRICITY":"0.00011360","APOAPSIS":"540.511","EPOCH":"2023-03-05T16:53:05.453376","REF_FRAME":"TEME","OBJECT_ID":"2022-005AR","FILE":"3852256","NORAD_CAT_ID":"51143","CENTER_NAME":"EARTH","PERIAPSIS":"538.939","GP_ID":"227581998","INCLINATION":"53.2146","OBJECT_NAME":"STARLINK-3184","RA_OF_ASC_NODE":"207.1499","COUNTRY_CODE":"US","MEAN_MOTION":"15.08846755","LAUNCH_DATE":"2022-01-19"},{"OBJECT_NAME":"STARLINK-3185","MEAN_MOTION":"15.08833732","COUNTRY_CODE":"US","LAUNCH_DATE":"2022-01-19","RA_OF_ASC_NODE":"198.5475","CENTER_NAME":"EARTH","NORAD_CAT_ID":"51144","GP_ID":"227548798","INCLINATION":"53.2136","PERIAPSIS":"538.915","TLE_LINE1":"1 51144U 22005AS  23064.39165525 -.00000485  00000-0 -12411-4 0  9997","ECCENTRICITY":"0.00012280","OBJECT_ID":"2022-005AS","FILE":"3851939","APOAPSIS":"540.614","EPOCH":"2023-03-05T09:23:59.013600","REF_FRAME":"TEME","MEAN_MOTION_DOT":"-0.00000485","DECAY_DATE":null,"MEAN_ELEMENT_THEORY":"SGP4","SEMIMAJOR_AXIS":"6917.900","REV_AT_EPOCH":"6263","ELEMENT_SET_NO":"999","OBJECT_TYPE":"PAYLOAD","TLE_LINE2":"2 51144  53.2136 198.5475 0001228 119.7971 240.3144 15.08833732 62639","TIME_SYSTEM":"UTC","ARG_OF_PERICENTER":"119.7971","BSTAR":"-0.00001241100000","MEAN_MOTION_DDOT":"0.0000000000000","CLASSIFICATION_TYPE":"U","SITE":"AFETR","MEAN_ANOMALY":"240.3144","PERIOD":"95.438","EPHEMERIS_TYPE":"0","RCS_SIZE":"LARGE"},{"PERIAPSIS":"538.872","GP_ID":"227583471","INCLINATION":"53.2159","NORAD_CAT_ID":"51145","CENTER_NAME":"EARTH","RA_OF_ASC_NODE":"207.1642","COUNTRY_CODE":"US","MEAN_MOTION":"15.08855024","LAUNCH_DATE":"2022-01-19","OBJECT_NAME":"STARLINK-3365","MEAN_ELEMENT_THEORY":"SGP4","SEMIMAJOR_AXIS":"6917.834","DECAY_DATE":null,"MEAN_MOTION_DOT":"0.00035085","APOAPSIS":"540.527","EPOCH":"2023-03-05T16:47:47.360544","REF_FRAME":"TEME","OBJECT_ID":"2022-005AT","FILE":"3852256","TLE_LINE1":"1 51145U 22005AT  23064.69985371  .00035085  00000-0  22107-2 0  9993","ECCENTRICITY":"0.00011960","BSTAR":"0.00221070000000","ELEMENT_SET_NO":"999","ARG_OF_PERICENTER":"86.5459","TLE_LINE2":"2 51145  53.2159 207.1642 0001196  86.5459 273.5670 15.08855024 62533","OBJECT_TYPE":"PAYLOAD","TIME_SYSTEM":"UTC","REV_AT_EPOCH":"6253","RCS_SIZE":"LARGE","PERIOD":"95.437","EPHEMERIS_TYPE":"0","MEAN_ANOMALY":"273.5670","CLASSIFICATION_TYPE":"U","SITE":"AFETR","MEAN_MOTION_DDOT":"0.0000000000000"}];
